JCSAT-17                
1 45245U 20013A   26190.80967838 -.00000303  00000+0  00000+0 0  9998
2 45245   5.3920 357.0694 0002900 125.3924 232.7863  1.00271419 23452
GEO-KOMPSAT-2B          
1 45246U 20013B   26190.80811837 -.00000332  00000+0  00000+0 0  9998
2 45246   0.0474 233.9789 0000906   4.9839 107.9486  1.00269037 23500
BEIDOU-3 G2             
1 45344U 20017A   26190.86985804 -.00000131  00000+0  00000+0 0  9990
2 45344   2.9069  47.6501 0002190  57.1776 216.1865  1.00270030 23485
AEHF-6 (USA 298)        
1 45465U 20022B   26190.81002505 -.00000283  00000+0  00000+0 0  9991
2 45465   2.5007 301.4173 0042029  15.5131  40.1716  1.00273477 23243
BEIDOU-3 G3             
1 45807U 20040A   26190.87590480 -.00000343  00000+0  00000+0 0  9998
2 45807   2.4993  67.4792 0001868 330.9416 315.2105  1.00266939 22295
APSTAR-6D               
1 45863U 20045A   26190.80924505 -.00000306  00000+0  00000+0 0  9996
2 45863   0.0402  85.5251 0001469  34.1803 233.3843  1.00268826 22080
KOREASAT 116            
1 45920U 20048A   26190.80577836 -.00000350  00000+0  00000+0 0  9993
2 45920   0.0058  17.9744 0000800  94.9461 221.1179  1.00269580 21869
EXPRESS 103             
1 45985U 20053A   26190.85580685 -.00000268  00000+0  00000+0 0  9999
2 45985   0.0258 287.3748 0001262 200.4597 204.5460  1.00271072 21874
EXPRESS 80              
1 45986U 20053B   26189.98082250  .00000000  00000+0  00000+0 0  9990
2 45986   0.0204  27.4740 0001803 174.3530 158.1653  1.00270025 21851
BSAT-4B                 
1 46112U 20056A   26190.80447836 -.00000338  00000+0  00000+0 0  9998
2 46112   0.0455 195.8587 0004171 293.3448 197.9779  1.00271116 21617
MEV-2                   
1 46113U 20056B   26190.78248213  .00000001  00000+0  00000+0 0  9990
2 46113   0.0500 258.4147 0000519 332.1315 337.8615  1.00271793 80940
GALAXY 30 (G-30)        
1 46114U 20056C   26190.75796686  .00000000  00000+0  00000+0 0  9999
2 46114   0.0242  29.5071 0001954  87.1468 318.9045  1.00271684 21511
GAOFEN-13 01            
1 46610U 20071A   26190.87746483 -.00000351  00000+0  00000+0 0  9990
2 46610   0.4536  86.2250 0045165 120.3773 155.3584  1.00268565 21146
TIANTONG-1 2            
1 46916U 20082A   26190.87876483 -.00000343  00000+0  00000+0 0  9996
2 46916   0.7641 330.7952 0001370 138.1083 260.2097  1.00269454 20885
LUCAS (JDRS-1)          
1 47202U 20089A   26190.80066500 -.00000223  00000+0  00000+0 0  9993
2 47202   0.0426 272.2721 0001703 187.4794 207.0216  1.00272299 20645
SXM-7                   
1 47240U 20096A   26190.66692169 -.00000193  00000+0  00000+0 0  9999
2 47240   0.0256  99.5778 0003484  23.0730 319.8841  1.00271634  7668
CMS-01                  
1 47256U 20099A   26190.79919167 -.00000152  00000+0  00000+0 0  9998
2 47256   0.0607  91.8991 0003383 176.7397  29.7948  1.00271742 20424
TURKSAT 5A              
1 47306U 21001A   26190.71752262  .00000167  00000+0  00000+0 0  9996
2 47306   0.0148  67.9118 0000268 186.7290 322.2451  1.00271446 20192
TIANTONG-1 3            
1 47321U 21003A   26190.87020471 -.00000142  00000+0  00000+0 0  9996
2 47321   1.7395 340.6554 0003209 136.4897 205.4812  1.00271501 20183
TJS-6                   
1 47613U 21010A   26190.81808509  .00000055  00000+0  00000+0 0  9990
2 47613   0.1952 262.3077 0003222 235.9988 262.4103  1.00271554 20038
SBIRS GEO-5 (USA 315)   
1 48618U 21042A   26190.85580684 -.00000253  00000+0  00000+0 0  9997
2 48618   5.0760 329.2835 0001474 150.3569 210.0482  1.00270577 18997
FENGYUN 4B              
1 48808U 21047A   26190.11364130 -.00000315  00000+0  00000+0 0  9997
2 48808   0.2044  79.5137 0005682 274.1360  78.9598  1.00265877 18782
SXM-8                   
1 48838U 21049A   26190.66692169 -.00000192  00000+0  00000+0 0  9991
2 48838   0.0161  37.5328 0005285 354.2090  50.8063  1.00270452 18813
TIANLIAN 1-05           
1 49011U 21063A   26190.78603549  .00000119  00000+0  00000+0 0  9996
2 49011   1.6490  80.5118 0000867  84.2706  62.7554  1.00271687 18301
STAR ONE D2             
1 49055U 21069A   26190.48367352  .00000000  00000+0  00000+0 0  9995
2 49055   0.0141  23.4255 0000163  14.2112 353.7867  1.00247248 18166
EUTELSAT QUANTUM        
1 49056U 21069B   26190.86344468  .00000138  00000+0  00000+0 0  9993
2 49056   0.0263 306.2300 0002081 159.3632 180.7450  1.00268900 18157
ZHONGXING-2E            
1 49062U 21071A   26190.58827921 -.00000278  00000+0  00000+0 0  9998
2 49062   0.0672 242.9971 0001448 259.9938  94.3686  1.00268374 18268
TJS-7                   
1 49115U 21077A   26190.83426036 -.00000111  00000+0  00000+0 0  9999
2 49115   0.3001 264.1905 0003084 111.5412 112.8833  1.00270046  9772
CHINASAT 9B             
1 49125U 21080A   26190.87408480 -.00000300  00000+0  00000+0 0  9991
2 49125   0.0189  84.2225 0002133  59.7679 199.9087  1.00271089 17870
SHIJIAN-21 (SJ-21)      
1 49330U 21094A   26190.72833583 -.00000340  00000+0  00000+0 0  9998
2 49330   5.1633  61.0393 0051651 168.8087  87.7584  1.00280775  5584
SES-17                  
1 49332U 21095A   26190.84076038 -.00000260  00000+0  00000+0 0  9999
2 49332   0.0214  41.1467 0000844  74.4210  47.7822  1.00268776 18081
SYRACUSE 4A             
1 49333U 21095B   26190.22146021  .00000000  00000+0  00000+0 0  9993
2 49333   0.0250  37.9319 0001416  65.5678 308.9080  1.00270946 18165
QZS-1R (MICHIBIKI-1R)   
1 49336U 21096A   26189.63484497 -.00000271  00000+0  00000+0 0  9993
2 49336  37.5026  79.2668 0755133 272.1320 296.0484  1.00247751 17221
ZHONGXING-1D            
1 49505U 21114A   26190.87980483 -.00000324  00000+0  00000+0 0  9995
2 49505   0.0500 241.7839 0000341  25.2499 107.7093  1.00271420 17049
STPSAT-6                
1 49817U 21118A   26190.61800603 -.00000033  00000+0  00000+0 0  9999
2 49817   0.3756  85.1619 0000917 240.8266  72.2929  1.00269973 16798
EXPRESS AMU-7           
1 50001U 21123A   26190.74011345 -.00000230  00000+0  00000+0 0  9992
2 50001   0.0239 288.8725 0000203  58.3893 351.8561  1.00271623 16764
EXPRESS AMU-3           
1 50002U 21123B   26189.91709294 -.00000308  00000+0  00000+0 0  9993
2 50002   0.0098 316.4015 0000206   3.4003  40.1989  1.00275114  7249
TIANLIAN 2-02           
1 50005U 21124A   26190.74531347 -.00000002  00000+0  00000+0 0  9993
2 50005   0.8562  85.8041 0001355 160.4632 120.7050  1.00271270 16849
TURKSAT 5B              
1 50212U 21126A   26190.86231801  .00000158  00000+0  00000+0 0  9991
2 50212   0.0690 340.0910 0002384  12.6910 287.4353  1.00270958 16528
INMARSAT 6-F1           
1 50319U 21128A   26190.79927832 -.00000159  00000+0  00000+0 0  9991
2 50319   0.0125 317.5963 0000334 239.9928 101.6264  1.00270912 16485
SHIYAN-12 01 (SY-12 01) 
1 50321U 21129A   26190.43457196  .00000160  00000+0  00000+0 0  9998
2 50321   3.7286  79.6114 0002639 286.3844 119.6935  1.00048363 16727
SHIYAN-12 02 (SY-12 02) 
1 50322U 21129B   26190.72126468 -.00000344  00000+0  00000+0 0  9991
2 50322   3.7286  79.6088 0003053  68.9692 145.0125  1.00480147 16728
TJS-9                   
1 50574U 21135A   26190.88119149 -.00000286  00000+0  00000+0 0  9997
2 50574   0.0355 118.2781 0002528 309.3425 314.6264  1.00274983 16655
GOES 18                 
1 51850U 22021A   26190.75562685  .00000109  00000+0  00000+0 0  9996
2 51850   0.0049 166.3359 0000590  21.9556 234.4155  1.00271909  6817
ZHONGXING-6D            
1 52255U 22038A   26190.85328815 -.00000341  00000+0  00000+0 0  9999
2 52255   0.0407 249.2050 0000487 266.4654 204.3326  1.00275401 15642
NILESAT 301             
1 52817U 22061A   26190.56738237 -.00000044  00000+0  00000+0 0  9990
2 52817   0.0494 338.8219 0004095  83.3842  62.6037  1.00272704 14969
CMS-02 (GSAT-24)        
1 52903U 22067A   26190.79919167 -.00000153  00000+0  00000+0 0  9991
2 52903   0.0212  77.3078 0000741 273.0108 308.1139  1.00272188 14831
MEASAT 3D               
1 52904U 22067B   26190.85580684 -.00000229  00000+0  00000+0 0  9991
2 52904   0.0556 299.1440 0000620 245.3995 142.8204  1.00270071 14871
SES-22                  
1 52933U 22071A   26190.75519352  .00000117  00000+0  00000+0 0  9996
2 52933   0.0235 297.6936 0000873 160.7741 322.0844  1.00269410  7744
WFOV (USA 332)          
1 52940U 22073A   26190.73508676 -.00000353  00000+0  00000+0 0  9994
2 52940   3.7654  78.2428 0001477 217.3781  15.9974  1.00270270 14599
TIANLIAN 2-03           
1 53100U 22078A   26190.71353594  .00000084  00000+0  00000+0 0  9993
2 53100   0.7272  77.4153 0000956 355.4293 122.2817  1.00273816 14777
SBIRS GEO-6 (USA 336)   
1 53355U 22092A   26190.81019838 -.00000277  00000+0  00000+0 0  9997
2 53355   3.2211 317.8433 0001742 151.4802 249.0988  1.00270918 14469
EUTELSAT KONNECT VHTS   
1 53765U 22110A   26190.29975376  .00000030  00000+0  00000+0 0  9999
2 53765   0.0585  98.9257 0002817 343.3699 315.5545  1.00267904  7050
ZHONGXING-1E            
1 53813U 22112A   26190.68795050 -.00000136  00000+0  00000+0 0  9995
2 53813   0.0433 120.3060 0000751 114.7488  21.6095  1.00269348 14078
SES-20                  
1 53960U 22123A   26190.54840228 -.00000088  00000+0  00000+0 0  9999
2 53960   0.0145  60.5004 0001875  34.6104 286.7033  1.00271629 13752
SES-21                  
1 53961U 22123B   26190.61419269  .00000000  00000+0  00000+0 0  9998
2 53961   0.0388  30.3604 0000987  78.8346 268.5390  1.00268199  7434
GALAXY 33 (G-33)        
1 54026U 22128A   26190.61384602  .00000092  00000+0  00000+0 0  9999
2 54026   0.0144 359.5754 0001837 114.8732 261.0888  1.00270420 13969
GALAXY 34 (G-34)        
1 54027U 22128B   26190.54328891  .00000072  00000+0  00000+0 0  9998
2 54027   0.0139  26.4956 0001430  90.6009 236.9722  1.00270076 14130
ANGOSAT 2               
1 54033U 22131A   26190.00312809  .00000150  00000+0  00000+0 0  9999
2 54033   0.0246 117.9783 0000176 116.6819  76.4156  1.00272772 13697
EUTELSAT HOTBIRD 13F    
1 54048U 22134A   26190.78525546  .00000099  00000+0  00000+0 0  9999
2 54048   0.0511 288.3425 0001954  67.3923 227.6800  1.00270946 13605
